[{"OBJECT_NAME":"CENTISPACE-1 S6","OBJECT_ID":"2022-126B","EPOCH":"2026-03-09T21:15:48.172608","MEAN_MOTION":14.62129457,"ECCENTRICITY":0.00134492,"INCLINATION":54.9982,"RA_OF_ASC_NODE":251.6889,"ARG_OF_PERICENTER":194.8443,"MEAN_ANOMALY":165.2158,"EPHEMERIS_TYPE":0,"CLASSIFICATION_TYPE":"U","NORAD_CAT_ID":54021,"ELEMENT_SET_NO":999,"REV_AT_EPOCH":18247,"BSTAR":0.0002040301,"MEAN_MOTION_DOT":8.46e-6,"MEAN_MOTION_DDOT":0},{"OBJECT_NAME":"FENGYUN 1C DEB","OBJECT_ID":"1999-025BBH","EPOCH":"2026-03-07T08:19:24.871296","MEAN_MOTION":14.57930512,"ECCENTRICITY":0.00947109,"INCLINATION":98.775,"RA_OF_ASC_NODE":22.0485,"ARG_OF_PERICENTER":342.0947,"MEAN_ANOMALY":17.6921,"EPHEMERIS_TYPE":0,"CLASSIFICATION_TYPE":"U","NORAD_CAT_ID":30967,"ELEMENT_SET_NO":999,"REV_AT_EPOCH":238,"BSTAR":0.0016112837,"MEAN_MOTION_DOT":7.813e-5,"MEAN_MOTION_DDOT":0}]
